HAWK-A                  
1 43765U 18099H   26202.14392779  .00005342  00000+0  21317-3 0  9996
2 43765  97.3891 253.9415 0035361 163.2488 196.9927 15.25013659418275
HAWK-B                  
1 43794U 18099AN  26202.14062611  .00004604  00000+0  19520-3 0  9990
2 43794  97.3941 253.2814 0031988 181.0961 179.0211 15.23157528418207
HAWK-C                  
1 43799U 18099AT  26202.10827994  .00006369  00000+0  22638-3 0  9998
2 43799  97.3868 254.9875 0040900 163.0535 197.2082 15.28549910419097
HAWK-2C                 
1 47502U 21006CT  26202.11876357  .00004794  00000+0  14320-3 0  9993
2 47502  97.2260 245.7566 0008646  84.1516 276.0713 15.35034767304701
HAWK-2A                 
1 47505U 21006CW  26202.05571857  .00004954  00000+0  14783-3 0  9997
2 47505  97.2301 246.3922 0008214  87.9319 272.2865 15.35056059304698
HAWK-2B                 
1 47508U 21006CZ  26202.11393176  .00005362  00000+0  15911-3 0  9991
2 47508  97.2174 244.7281 0008740  86.0266 274.1977 15.35188101304705
HAWK-3B                 
1 48931U 21059BE  26202.08367896  .00037840  00000+0  28735-3 0  9990
2 48931  97.6636  42.0684 0004950 177.9803 182.1481 15.72233050283175
HAWK-3C                 
1 48948U 21059BX  26202.14700693  .00035131  00000+0  26687-3 0  9996
2 48948  97.6750  47.8813 0005258 177.8782 182.2503 15.72236935283186
HAWK-3A                 
1 48957U 21059CG  26202.08324934  .00037085  00000+0  28164-3 0  9991
2 48957  97.6699  44.9888 0005098 180.1984 179.9277 15.72234327283174
HAWK-5C                 
1 52754U 22057Y   26201.95879323  .00013600  00000+0  22402-3 0  9998
2 52754  97.6629   3.8388 0002387 317.5371  42.5696 15.52456657231588
HAWK-5B                 
1 52756U 22057AA  26201.95862300  .00013309  00000+0  21930-3 0  9998
2 52756  97.6640   2.1933 0003051 303.0928  57.0031 15.52452064231580
HAWK-5A                 
1 52757U 22057AB  26201.95841727  .00013382  00000+0  22047-3 0  9990
2 52757  97.6637   3.0231 0002942 309.8300  50.2692 15.52455151231582
HAWK-6B                 
1 55324U 23011A   26202.21396356  .00003272  00000+0  14359-3 0  9991
2 55324  40.4981 153.5607 0004583 270.8827  89.1457 15.23188223193033
HAWK-6C                 
1 55326U 23011C   26202.27889590  .00003204  00000+0  14074-3 0  9995
2 55326  40.4970 150.0170 0005074 266.0361  93.9869 15.23188167193055
HAWK-6A                 
1 55327U 23011D   26202.21336814  .00003239  00000+0  14221-3 0  9998
2 55327  40.4979 152.0272 0004771 262.7160  97.3107 15.23188189193049
HAWK-7A                 
1 56191U 23054P   26202.10876268  .00003944  00000+0  14853-3 0  9999
2 56191  97.2652  88.5833 0000988 289.7261  70.3872 15.27671200182201
